start=new Date('2022-08-17T00:00:00.000Z').valueOf();
sats=[{"MEAN_ANOMALY":"294.2702","SEMIMAJOR_AXIS":"6917.880","REF_FRAME":"TEME","EPOCH":"2022-08-16T13:52:59.337120","EPHEMERIS_TYPE":"0","OBJECT_ID":"2021-104AW","COUNTRY_CODE":"US","ELEMENT_SET_NO":"999","ECCENTRICITY":"0.00014590","LAUNCH_DATE":"2021-11-13","BSTAR":"0.00027104000000","RA_OF_ASC_NODE":"300.0364","INCLINATION":"53.2186","TIME_SYSTEM":"UTC","OBJECT_TYPE":"PAYLOAD","REV_AT_EPOCH":"4235","CENTER_NAME":"EARTH","MEAN_MOTION_DDOT":"0.0000000000000","OBJECT_NAME":"STARLINK-3150","TLE_LINE1":"1 49452U 21104AW  22228.57846455  .00004028  00000-0  27104-3 0  9993","RCS_SIZE":"LARGE","GP_ID":"210369007","NORAD_CAT_ID":"49452","MEAN_ELEMENT_THEORY":"SGP4","PERIOD":"95.438","ARG_OF_PERICENTER":"65.8443","CLASSIFICATION_TYPE":"U","PERIAPSIS":"538.736","DECAY_DATE":null,"MEAN_MOTION":"15.08840180","MEAN_MOTION_DOT":"0.00004028","TLE_LINE2":"2 49452  53.2186 300.0364 0001459  65.8443 294.2702 15.08840180 42351","SITE":"AFETR","FILE":"3538178","APOAPSIS":"540.754"},{"DECAY_DATE":null,"PERIAPSIS":"538.600","MEAN_MOTION_DOT":"-0.00000557","MEAN_MOTION":"15.08834973","TLE_LINE2":"2 49453  53.2173 300.0142 0001678  62.7193 297.3970 15.08834973 42357","APOAPSIS":"540.922","FILE":"3538178","SITE":"AFETR","TLE_LINE1":"1 49453U 21104AX  22228.58487803 -.00000557  00000-0 -16908-4 0  9999","GP_ID":"210367755","RCS_SIZE":"LARGE","NORAD_CAT_ID":"49453","MEAN_ELEMENT_THEORY":"SGP4","CLASSIFICATION_TYPE":"U","ARG_OF_PERICENTER":"62.7193","PERIOD":"95.438","RA_OF_ASC_NODE":"300.0142","INCLINATION":"53.2173","REV_AT_EPOCH":"4235","CENTER_NAME":"EARTH","OBJECT_TYPE":"PAYLOAD","TIME_SYSTEM":"UTC","OBJECT_NAME":"STARLINK-3129","MEAN_MOTION_DDOT":"0.0000000000000","EPHEMERIS_TYPE":"0","REF_FRAME":"TEME","SEMIMAJOR_AXIS":"6917.896","EPOCH":"2022-08-16T14:02:13.461792","MEAN_ANOMALY":"297.3970","ELEMENT_SET_NO":"999","COUNTRY_CODE":"US","OBJECT_ID":"2021-104AX","LAUNCH_DATE":"2021-11-13","ECCENTRICITY":"0.00016780","BSTAR":"-0.00001690800000"},{"TLE_LINE2":"2 49454  53.2163 300.0054 0001232  80.9510 279.1622 15.08830675 42357","APOAPSIS":"540.626","FILE":"3538178","SITE":"AFETR","DECAY_DATE":null,"PERIAPSIS":"538.922","MEAN_MOTION":"15.08830675","MEAN_MOTION_DOT":"0.00000921","MEAN_ELEMENT_THEORY":"SGP4","NORAD_CAT_ID":"49454","ARG_OF_PERICENTER":"80.9510","CLASSIFICATION_TYPE":"U","PERIOD":"95.438","TLE_LINE1":"1 49454U 21104AY  22228.58855661  .00000921  00000-0  75968-4 0  9995","RCS_SIZE":"LARGE","GP_ID":"210368505","OBJECT_TYPE":"PAYLOAD","CENTER_NAME":"EARTH","REV_AT_EPOCH":"4235","TIME_SYSTEM":"UTC","OBJECT_NAME":"STARLINK-3160","MEAN_MOTION_DDOT":"0.0000000000000","RA_OF_ASC_NODE":"300.0054","INCLINATION":"53.2163","LAUNCH_DATE":"2021-11-13","ECCENTRICITY":"0.00012320","BSTAR":"0.00007596800000","EPHEMERIS_TYPE":"0","MEAN_ANOMALY":"279.1622","SEMIMAJOR_AXIS":"6917.909","REF_FRAME":"TEME","EPOCH":"2022-08-16T14:07:31.291104","ELEMENT_SET_NO":"999","COUNTRY_CODE":"US","OBJECT_ID":"2021-104AY"},{"DECAY_DATE":null,"PERIAPSIS":"538.366","MEAN_MOTION":"15.08829990","MEAN_MOTION_DOT":"-0.00000755","TLE_LINE2":"2 49455  53.2184 299.7577 0002038  43.3772 316.7380 15.08829990 42361","FILE":"3538178","APOAPSIS":"541.186","SITE":"AFETR","TLE_LINE1":"1 49455U 21104AZ  22228.64007877 -.00000755  00000-0 -29345-4 0  9996","RCS_SIZE":"LARGE","GP_ID":"210368757","MEAN_ELEMENT_THEORY":"SGP4","NORAD_CAT_ID":"49455","ARG_OF_PERICENTER":"43.3772","CLASSIFICATION_TYPE":"U","PERIOD":"95.438","INCLINATION":"53.2184","RA_OF_ASC_NODE":"299.7577","OBJECT_TYPE":"PAYLOAD","REV_AT_EPOCH":"4236","CENTER_NAME":"EARTH","TIME_SYSTEM":"UTC","OBJECT_NAME":"STARLINK-3145","MEAN_MOTION_DDOT":"0.0000000000000","EPHEMERIS_TYPE":"0","SEMIMAJOR_AXIS":"6917.911","MEAN_ANOMALY":"316.7380","REF_FRAME":"TEME","EPOCH":"2022-08-16T15:21:42.805728","COUNTRY_CODE":"US","OBJECT_ID":"2021-104AZ","ELEMENT_SET_NO":"999","LAUNCH_DATE":"2021-11-13","ECCENTRICITY":"0.00020380","BSTAR":"-0.00002934500000"},{"MEAN_MOTION":"15.08830526","MEAN_MOTION_DOT":"0.00001723","DECAY_DATE":null,"PERIAPSIS":"538.645","FILE":"3538178","APOAPSIS":"540.903","SITE":"AFETR","TLE_LINE2":"2 49456  53.2161 300.0370 0001632  60.0118 300.1036 15.08830526 42354","RCS_SIZE":"LARGE","GP_ID":"210369507","TLE_LINE1":"1 49456U 21104BA  22228.58119849  .00001723  00000-0  12637-3 0  9992","ARG_OF_PERICENTER":"60.0118","CLASSIFICATION_TYPE":"U","PERIOD":"95.438","NORAD_CAT_ID":"49456","MEAN_ELEMENT_THEORY":"SGP4","INCLINATION":"53.2161","RA_OF_ASC_NODE":"300.0370","OBJECT_NAME":"STARLINK-3124","MEAN_MOTION_DDOT":"0.0000000000000","OBJECT_TYPE":"PAYLOAD","REV_AT_EPOCH":"4235","CENTER_NAME":"EARTH","TIME_SYSTEM":"UTC","COUNTRY_CODE":"US","ELEMENT_SET_NO":"999","OBJECT_ID":"2021-104BA","EPHEMERIS_TYPE":"0","MEAN_ANOMALY":"300.1036","SEMIMAJOR_AXIS":"6917.909","EPOCH":"2022-08-16T13:56:55.549536","REF_FRAME":"TEME","BSTAR":"0.00012637000000","LAUNCH_DATE":"2021-11-13","ECCENTRICITY":"0.00016320"},{"MEAN_ANOMALY":"294.8503","SEMIMAJOR_AXIS":"6917.871","EPOCH":"2022-08-16T15:16:23.791872","REF_FRAME":"TEME","EPHEMERIS_TYPE":"0","COUNTRY_CODE":"US","ELEMENT_SET_NO":"999","OBJECT_ID":"2021-104BB","ECCENTRICITY":"0.00015200","LAUNCH_DATE":"2021-11-13","BSTAR":"0.00000022004000","RA_OF_ASC_NODE":"299.7853","INCLINATION":"53.2192","TIME_SYSTEM":"UTC","OBJECT_TYPE":"PAYLOAD","CENTER_NAME":"EARTH","REV_AT_EPOCH":"4236","MEAN_MOTION_DDOT":"0.0000000000000","OBJECT_NAME":"STARLINK-3132","TLE_LINE1":"1 49457U 21104BB  22228.63638648 -.00000284  00000-0  22004-6 0  9996","RCS_SIZE":"LARGE","GP_ID":"210368255","MEAN_ELEMENT_THEORY":"SGP4","NORAD_CAT_ID":"49457","PERIOD":"95.437","ARG_OF_PERICENTER":"65.2648","CLASSIFICATION_TYPE":"U","PERIAPSIS":"538.684","DECAY_DATE":null,"MEAN_MOTION":"15.08843227","MEAN_MOTION_DOT":"-0.00000284","TLE_LINE2":"2 49457  53.2192 299.7853 0001520  65.2648 294.8503 15.08843227 42361","SITE":"AFETR","APOAPSIS":"540.787","FILE":"3538178"},{"MEAN_MOTION_DOT":"-0.00000978","MEAN_MOTION":"15.08834267","PERIAPSIS":"538.561","DECAY_DATE":null,"SITE":"AFETR","FILE":"3538178","APOAPSIS":"540.965","TLE_LINE2":"2 49458  53.2192 300.0472 0001737  57.9810 302.1351 15.08834267 42351","GP_ID":"210368006","RCS_SIZE":"LARGE","TLE_LINE1":"1 49458U 21104BC  22228.57751701 -.00000978  00000-0 -43392-4 0  9998","PERIOD":"95.438","CLASSIFICATION_TYPE":"U","ARG_OF_PERICENTER":"57.9810","MEAN_ELEMENT_THEORY":"SGP4","NORAD_CAT_ID":"49458","RA_OF_ASC_NODE":"300.0472","INCLINATION":"53.2192","MEAN_MOTION_DDOT":"0.0000000000000","OBJECT_NAME":"STARLINK-3156","TIME_SYSTEM":"UTC","REV_AT_EPOCH":"4235","CENTER_NAME":"EARTH","OBJECT_TYPE":"PAYLOAD","OBJECT_ID":"2021-104BC","COUNTRY_CODE":"US","ELEMENT_SET_NO":"999","MEAN_ANOMALY":"302.1351","SEMIMAJOR_AXIS":"6917.898","REF_FRAME":"TEME","EPOCH":"2022-08-16T13:51:37.469664","EPHEMERIS_TYPE":"0","BSTAR":"-0.00004339200000","ECCENTRICITY":"0.00017370","LAUNCH_DATE":"2021-11-13"},{"TLE_LINE2":"2 49459  53.2170 300.3980 0001518  68.5742 291.5412 15.08835507 42340","SITE":"AFETR","APOAPSIS":"540.809","FILE":"3537973","PERIAPSIS":"538.709","DECAY_DATE":null,"MEAN_MOTION":"15.08835507","MEAN_MOTION_DOT":"0.00001143","NORAD_CAT_ID":"49459","MEAN_ELEMENT_THEORY":"SGP4","PERIOD":"95.438","ARG_OF_PERICENTER":"68.5742","CLASSIFICATION_TYPE":"U","TLE_LINE1":"1 49459U 21104BD  22228.50022918  .00001143  00000-0  89892-4 0  9991","RCS_SIZE":"LARGE","GP_ID":"210338030","TIME_SYSTEM":"UTC","OBJECT_TYPE":"PAYLOAD","CENTER_NAME":"EARTH","REV_AT_EPOCH":"4234","MEAN_MOTION_DDOT":"0.0000000000000","OBJECT_NAME":"STARLINK-3141","INCLINATION":"53.2170","RA_OF_ASC_NODE":"300.3980","ECCENTRICITY":"0.00015180","LAUNCH_DATE":"2021-11-13","BSTAR":"0.00008989200000","REF_FRAME":"TEME","SEMIMAJOR_AXIS":"6917.894","EPOCH":"2022-08-16T12:00:19.801152","MEAN_ANOMALY":"291.5412","EPHEMERIS_TYPE":"0","ELEMENT_SET_NO":"999","COUNTRY_CODE":"US","OBJECT_ID":"2021-104BD"},{"INCLINATION":"53.2169","RA_OF_ASC_NODE":"299.8277","TIME_SYSTEM":"UTC","CENTER_NAME":"EARTH","REV_AT_EPOCH":"4235","OBJECT_TYPE":"PAYLOAD","MEAN_MOTION_DDOT":"0.0000000000000","OBJECT_NAME":"STARLINK-3140","SEMIMAJOR_AXIS":"6917.883","EPOCH":"2022-08-16T15:05:48.014016","REF_FRAME":"TEME","MEAN_ANOMALY":"295.9073","EPHEMERIS_TYPE":"0","ELEMENT_SET_NO":"999","COUNTRY_CODE":"US","OBJECT_ID":"2021-104BE","ECCENTRICITY":"0.00013780","LAUNCH_DATE":"2021-11-13","BSTAR":"0.00003436700000","PERIAPSIS":"538.794","DECAY_DATE":null,"MEAN_MOTION_DOT":"0.00000259","MEAN_MOTION":"15.08839223","TLE_LINE2":"2 49460  53.2169 299.8277 0001378  64.2061 295.9073 15.08839223 42353","SITE":"AFETR","APOAPSIS":"540.701","FILE":"3538178","TLE_LINE1":"1 49460U 21104BE  22228.62902794  .00000259  00000-0  34367-4 0  9999","GP_ID":"210369008","RCS_SIZE":"LARGE","NORAD_CAT_ID":"49460","MEAN_ELEMENT_THEORY":"SGP4","PERIOD":"95.438","CLASSIFICATION_TYPE":"U","ARG_OF_PERICENTER":"64.2061"},{"TLE_LINE2":"2 49724  53.2158 229.2946 0001858  56.9072 303.2098 15.08844675 39136","APOAPSIS":"541.016","FILE":"3538178","SITE":"AFETR","DECAY_DATE":null,"PERIAPSIS":"538.446","MEAN_MOTION":"15.08844675","MEAN_MOTION_DOT":"0.00000063","MEAN_ELEMENT_THEORY":"SGP4","NORAD_CAT_ID":"49724","ARG_OF_PERICENTER":"56.9072","CLASSIFICATION_TYPE":"U","PERIOD":"95.437","TLE_LINE1":"1 49724U 21115A   22228.74315299  .00000063  00000-0  22056-4 0  9990","RCS_SIZE":"LARGE","GP_ID":"210368774","OBJECT_TYPE":"PAYLOAD","REV_AT_EPOCH":"3913","CENTER_NAME":"EARTH","TIME_SYSTEM":"UTC","OBJECT_NAME":"STARLINK-3219","MEAN_MOTION_DDOT":"0.0000000000000","RA_OF_ASC_NODE":"229.2946","INCLINATION":"53.2158","LAUNCH_DATE":"2021-12-02","ECCENTRICITY":"0.00018580","BSTAR":"0.00002205600000","EPHEMERIS_TYPE":"0","EPOCH":"2022-08-16T17:50:08.418336","SEMIMAJOR_AXIS":"6917.866","REF_FRAME":"TEME","MEAN_ANOMALY":"303.2098","ELEMENT_SET_NO":"999","COUNTRY_CODE":"US","OBJECT_ID":"2021-115A"}];
